{"type":"FeatureCollection","metadata":{"source":"B’Tselem map-data, s9/checkpoints_all.geojson","source_commit_date":"2020-05-20","observation_date":"not stated in source file","scope":"8 individually selected records for a source-attributed preview"},"features":[{"type":"Feature","geometry":{"type":"Point","coordinates":[34.27155,31.22443]},"properties":{"name":"Kerrem Shalom","name_ar":"كرم أبو سالم","name_he":"כרם שלום","category":"Last Checkpoint before Israel","district":"Gaza Strip","source":"B’Tselem","source_id":0,"source_url":"https://github.com/btselem/map-data/blob/master/s9/checkpoints_all.geojson"}},{"type":"Feature","geometry":{"type":"Point","coordinates":[34.54408,31.55874]},"properties":{"name":"Erez","name_ar":"إيرز","name_he":"ארז","category":"Last Checkpoint before Israel","district":"Gaza Strip","source":"B’Tselem","source_id":10,"source_url":"https://github.com/btselem/map-data/blob/master/s9/checkpoints_all.geojson"}},{"type":"Feature","geometry":{"type":"Point","coordinates":[34.4924,31.48546]},"properties":{"name":"Nahal Oz","name_ar":"ناحل عوز","name_he":"נחל עוז","category":"Last Checkpoint before Israel","district":"Gaza Strip","source":"B’Tselem","source_id":32,"source_url":"https://github.com/btselem/map-data/blob/master/s9/checkpoints_all.geojson"}},{"type":"Feature","geometry":{"type":"Point","coordinates":[34.32757,31.25784]},"properties":{"name":"Sufa","name_ar":"صوفا","name_he":"סופה","category":"Last Checkpoint before Israel","district":"Gaza Strip","source":"B’Tselem","source_id":35,"source_url":"https://github.com/btselem/map-data/blob/master/s9/checkpoints_all.geojson"}},{"type":"Feature","geometry":{"type":"Point","coordinates":[35.22747,31.86183]},"properties":{"name":"Qalandia","name_ar":"قلنديا","name_he":"קלנדיה","category":"Last Checkpoint before Israel","district":"Ramallah and al-Bira","source":"B’Tselem","source_id":38,"source_url":"https://github.com/btselem/map-data/blob/master/s9/checkpoints_all.geojson"}},{"type":"Feature","geometry":{"type":"Point","coordinates":[34.48382,31.47878]},"properties":{"name":"Karni","name_ar":"كارني","name_he":"קרני","category":"Last Checkpoint before Israel","district":"Gaza Strip","source":"B’Tselem","source_id":40,"source_url":"https://github.com/btselem/map-data/blob/master/s9/checkpoints_all.geojson"}},{"type":"Feature","geometry":{"type":"Point","coordinates":[35.27337,32.17663]},"properties":{"name":"Huwarah","name_ar":"حوارة","name_he":"חווארה","category":"Internal Checkpoint","district":"Nablus","source":"B’Tselem","source_id":67,"source_url":"https://github.com/btselem/map-data/blob/master/s9/checkpoints_all.geojson"}},{"type":"Feature","geometry":{"type":"Point","coordinates":[34.2582,31.2485]},"properties":{"name":"Rafah","name_ar":"رفح / العودة","name_he":"רפיח","category":"Border Crossing","district":"Gaza Strip","source":"B’Tselem","source_id":102,"source_url":"https://github.com/btselem/map-data/blob/master/s9/checkpoints_all.geojson"}}]}
